LANDSAT 9               
1 49260U 21088A   23300.90097099  .00000662  00000+0  15698-3 0  9996
2 49260  98.2171   9.1184 0001084  93.5611 266.5712 14.57122971110710
